IRIDIUM 144             
1 43249U 18030A   24184.59166144 -.00000013  00000+0 -11818-4 0  9997
2 43249  86.3971 229.0256 0002501  91.3706 268.7776 14.34217225327712
IRIDIUM 149             
1 43250U 18030B   24184.59800364 -.00000035  00000+0 -19553-4 0  9996
2 43250  86.3971 228.9981 0002348  89.3329 270.8136 14.34217201327734
IRIDIUM 157             
1 43251U 18030C   24184.61702636  .00000274  00000+0  90651-4 0  9994
2 43251  86.3969 229.0274 0002046  89.7256 270.4175 14.34219945327711
IRIDIUM 140             
1 43252U 18030D   24184.56628259  .00000031  00000+0  38778-5 0  9991
2 43252  86.3971 229.0633 0002641  96.8518 263.2978 14.34216305327768
IRIDIUM 145             
1 43253U 18030E   24184.55360578  .00000027  00000+0  26072-5 0  9997
2 43253  86.3970 229.0423 0002731  87.8100 272.3408 14.34217612327695
IRIDIUM 146             
1 43254U 18030F   24184.60434622  .00000040  00000+0  72570-5 0  9995
2 43254  86.3968 229.0360 0002466  90.6338 269.5140 14.34217064327718
IRIDIUM 148             
1 43255U 18030G   24184.57263285  .00000089  00000+0  24891-4 0  9992
2 43255  86.3971 229.0812 0002232  88.5215 271.6236 14.34216959327741
IRIDIUM 142             
1 43256U 18030H   24184.61068874  .00000113  00000+0  33333-4 0  9994
2 43256  86.3967 228.9803 0002619  89.1156 271.0340 14.34216022327713
